[{"OBJECT_NAME":"STARLINK-31779","OBJECT_ID":"2024-090Q","EPOCH":"2025-08-11T05:13:56.537472","MEAN_MOTION":15.27551623,"ECCENTRICITY":0.0001723,"INCLINATION":43.0016,"RA_OF_ASC_NODE":291.9206,"ARG_OF_PERICENTER":266.1404,"MEAN_ANOMALY":93.9251,"EPHEMERIS_TYPE":0,"CLASSIFICATION_TYPE":"U","NORAD_CAT_ID":59744,"ELEMENT_SET_NO":999,"REV_AT_EPOCH":7125,"BSTAR":-0.00016426,"MEAN_MOTION_DOT":-4.776e-5,"MEAN_MOTION_DDOT":0},{"OBJECT_NAME":"STARLINK-31805","OBJECT_ID":"2024-090R","EPOCH":"2025-08-10T16:24:01.143648","MEAN_MOTION":15.27573353,"ECCENTRICITY":6.91e-5,"INCLINATION":42.9995,"RA_OF_ASC_NODE":294.7881,"ARG_OF_PERICENTER":266.2363,"MEAN_ANOMALY":93.8409,"EPHEMERIS_TYPE":0,"CLASSIFICATION_TYPE":"U","NORAD_CAT_ID":59745,"ELEMENT_SET_NO":999,"REV_AT_EPOCH":7117,"BSTAR":-1.2348e-6,"MEAN_MOTION_DOT":-2.96e-6,"MEAN_MOTION_DDOT":0},{"OBJECT_NAME":"STARLINK-31681","OBJECT_ID":"2024-090S","EPOCH":"2025-08-10T13:52:15.882240","MEAN_MOTION":15.2756282,"ECCENTRICITY":0.0001039,"INCLINATION":43.0032,"RA_OF_ASC_NODE":288.7927,"ARG_OF_PERICENTER":268.9472,"MEAN_ANOMALY":91.126,"EPHEMERIS_TYPE":0,"CLASSIFICATION_TYPE":"U","NORAD_CAT_ID":59746,"ELEMENT_SET_NO":999,"REV_AT_EPOCH":7123,"BSTAR":5.3508e-5,"MEAN_MOTION_DOT":1.21e-5,"MEAN_MOTION_DDOT":0},{"OBJECT_NAME":"STARLINK-31636","OBJECT_ID":"2024-090T","EPOCH":"2025-08-11T05:17:39.091776","MEAN_MOTION":15.27554788,"ECCENTRICITY":0.0001602,"INCLINATION":43.0028,"RA_OF_ASC_NODE":291.938,"ARG_OF_PERICENTER":265.0359,"MEAN_ANOMALY":95.0309,"EPHEMERIS_TYPE":0,"CLASSIFICATION_TYPE":"U","NORAD_CAT_ID":59747,"ELEMENT_SET_NO":999,"REV_AT_EPOCH":7125,"BSTAR":-9.226e-5,"MEAN_MOTION_DOT":-2.798e-5,"MEAN_MOTION_DDOT":0},{"OBJECT_NAME":"STARLINK-31640","OBJECT_ID":"2024-090U","EPOCH":"2025-08-11T05:41:41.961408","MEAN_MOTION":15.27562103,"ECCENTRICITY":0.0001131,"INCLINATION":42.9984,"RA_OF_ASC_NODE":292.0595,"ARG_OF_PERICENTER":292.8339,"MEAN_ANOMALY":67.2393,"EPHEMERIS_TYPE":0,"CLASSIFICATION_TYPE":"U","NORAD_CAT_ID":59748,"ELEMENT_SET_NO":999,"REV_AT_EPOCH":7125,"BSTAR":-5.6649e-5,"MEAN_MOTION_DOT":-1.82e-5,"MEAN_MOTION_DDOT":0},{"OBJECT_NAME":"STARLINK-31677","OBJECT_ID":"2024-090V","EPOCH":"2025-08-11T06:05:44.109600","MEAN_MOTION":15.27575866,"ECCENTRICITY":8.01e-5,"INCLINATION":43.0013,"RA_OF_ASC_NODE":292.1875,"ARG_OF_PERICENTER":249.9145,"MEAN_ANOMALY":110.162,"EPHEMERIS_TYPE":0,"CLASSIFICATION_TYPE":"U","NORAD_CAT_ID":59749,"ELEMENT_SET_NO":999,"REV_AT_EPOCH":7124,"BSTAR":-0.00029664,"MEAN_MOTION_DOT":-8.414e-5,"MEAN_MOTION_DDOT":0},{"OBJECT_NAME":"STARLINK-31783","OBJECT_ID":"2024-090W","EPOCH":"2025-08-11T04:42:41.130432","MEAN_MOTION":15.27567644,"ECCENTRICITY":0.0001092,"INCLINATION":43.0014,"RA_OF_ASC_NODE":292.616,"ARG_OF_PERICENTER":267.5658,"MEAN_ANOMALY":92.5068,"EPHEMERIS_TYPE":0,"CLASSIFICATION_TYPE":"U","NORAD_CAT_ID":59750,"ELEMENT_SET_NO":999,"REV_AT_EPOCH":7123,"BSTAR":-0.00019149,"MEAN_MOTION_DOT":-5.525e-5,"MEAN_MOTION_DDOT":0},{"OBJECT_NAME":"STARLINK-31808","OBJECT_ID":"2024-090X","EPOCH":"2025-08-10T16:18:28.225440","MEAN_MOTION":15.27574275,"ECCENTRICITY":4.71e-5,"INCLINATION":42.9978,"RA_OF_ASC_NODE":294.7601,"ARG_OF_PERICENTER":174.2907,"MEAN_ANOMALY":185.795,"EPHEMERIS_TYPE":0,"CLASSIFICATION_TYPE":"U","NORAD_CAT_ID":59751,"ELEMENT_SET_NO":999,"REV_AT_EPOCH":7116,"BSTAR":-1.515e-5,"MEAN_MOTION_DOT":-6.78e-6,"MEAN_MOTION_DDOT":0},{"OBJECT_NAME":"STARLINK-31822","OBJECT_ID":"2024-090Y","EPOCH":"2025-08-10T21:32:23.684640","MEAN_MOTION":15.27567692,"ECCENTRICITY":0.0001672,"INCLINATION":42.9999,"RA_OF_ASC_NODE":293.8138,"ARG_OF_PERICENTER":274.2981,"MEAN_ANOMALY":85.768,"EPHEMERIS_TYPE":0,"CLASSIFICATION_TYPE":"U","NORAD_CAT_ID":59752,"ELEMENT_SET_NO":999,"REV_AT_EPOCH":7119,"BSTAR":-0.00011178,"MEAN_MOTION_DOT":-3.336e-5,"MEAN_MOTION_DDOT":0},{"OBJECT_NAME":"STARLINK-11118 [DTC]","OBJECT_ID":"2024-091B","EPOCH":"2025-08-11T02:27:06.295680","MEAN_MOTION":15.69690313,"ECCENTRICITY":0.0001593,"INCLINATION":53.1596,"RA_OF_ASC_NODE":164.7189,"ARG_OF_PERICENTER":89.9417,"MEAN_ANOMALY":270.1783,"EPHEMERIS_TYPE":0,"CLASSIFICATION_TYPE":"U","NORAD_CAT_ID":59754,"ELEMENT_SET_NO":999,"REV_AT_EPOCH":7243,"BSTAR":-3.0788e-5,"MEAN_MOTION_DOT":-4.314e-5,"MEAN_MOTION_DDOT":0},{"OBJECT_NAME":"STARLINK-11132 [DTC]","OBJECT_ID":"2024-091C","EPOCH":"2025-08-11T05:16:19.969248","MEAN_MOTION":15.69698695,"ECCENTRICITY":7.16e-5,"INCLINATION":53.1601,"RA_OF_ASC_NODE":164.0264,"ARG_OF_PERICENTER":61.7494,"MEAN_ANOMALY":298.3596,"EPHEMERIS_TYPE":0,"CLASSIFICATION_TYPE":"U","NORAD_CAT_ID":59755,"ELEMENT_SET_NO":999,"REV_AT_EPOCH":7247,"BSTAR":-2.6251e-5,"MEAN_MOTION_DOT":-3.765e-5,"MEAN_MOTION_DDOT":0},{"OBJECT_NAME":"STARLINK-11131 [DTC]","OBJECT_ID":"2024-091D","EPOCH":"2025-08-11T05:09:15.705504","MEAN_MOTION":15.69695786,"ECCENTRICITY":0.0001006,"INCLINATION":53.1606,"RA_OF_ASC_NODE":163.9976,"ARG_OF_PERICENTER":316.5046,"MEAN_ANOMALY":43.5892,"EPHEMERIS_TYPE":0,"CLASSIFICATION_TYPE":"U","NORAD_CAT_ID":59756,"ELEMENT_SET_NO":999,"REV_AT_EPOCH":7245,"BSTAR":-9.6043e-6,"MEAN_MOTION_DOT":-1.751e-5,"MEAN_MOTION_DDOT":0},{"OBJECT_NAME":"STARLINK-11114 [DTC]","OBJECT_ID":"2024-091E","EPOCH":"2025-08-07T21:34:37.849152","MEAN_MOTION":15.69684332,"ECCENTRICITY":0.0001246,"INCLINATION":53.1601,"RA_OF_ASC_NODE":180.3076,"ARG_OF_PERICENTER":80.3425,"MEAN_ANOMALY":279.7734,"EPHEMERIS_TYPE":0,"CLASSIFICATION_TYPE":"U","NORAD_CAT_ID":59757,"ELEMENT_SET_NO":999,"REV_AT_EPOCH":7193,"BSTAR":4.4093e-5,"MEAN_MOTION_DOT":4.751e-5,"MEAN_MOTION_DDOT":0},{"OBJECT_NAME":"STARLINK-11105 [DTC]","OBJECT_ID":"2024-091F","EPOCH":"2025-08-10T13:38:19.964832","MEAN_MOTION":15.69670115,"ECCENTRICITY":0.0001458,"INCLINATION":53.1576,"RA_OF_ASC_NODE":167.0857,"ARG_OF_PERICENTER":95.3799,"MEAN_ANOMALY":264.7385,"EPHEMERIS_TYPE":0,"CLASSIFICATION_TYPE":"U","NORAD_CAT_ID":59758,"ELEMENT_SET_NO":999,"REV_AT_EPOCH":7231,"BSTAR":-4.3541e-5,"MEAN_MOTION_DOT":-5.851e-5,"MEAN_MOTION_DDOT":0},{"OBJECT_NAME":"STARLINK-11097 [DTC]","OBJECT_ID":"2024-091G","EPOCH":"2025-08-11T03:16:25.124160","MEAN_MOTION":15.69702315,"ECCENTRICITY":7.19e-5,"INCLINATION":53.1617,"RA_OF_ASC_NODE":164.2117,"ARG_OF_PERICENTER":70.5695,"MEAN_ANOMALY":289.54,"EPHEMERIS_TYPE":0,"CLASSIFICATION_TYPE":"U","NORAD_CAT_ID":59759,"ELEMENT_SET_NO":999,"REV_AT_EPOCH":7244,"BSTAR":-8.4949e-5,"MEAN_MOTION_DOT":-0.00010862,"MEAN_MOTION_DDOT":0},{"OBJECT_NAME":"STARLINK-11098 [DTC]","OBJECT_ID":"2024-091H","EPOCH":"2025-08-11T03:09:21.166272","MEAN_MOTION":15.69670785,"ECCENTRICITY":0.0001852,"INCLINATION":53.1597,"RA_OF_ASC_NODE":164.1769,"ARG_OF_PERICENTER":96.8312,"MEAN_ANOMALY":263.2917,"EPHEMERIS_TYPE":0,"CLASSIFICATION_TYPE":"U","NORAD_CAT_ID":59760,"ELEMENT_SET_NO":999,"REV_AT_EPOCH":7244,"BSTAR":-3.8525e-5,"MEAN_MOTION_DOT":-5.246e-5,"MEAN_MOTION_DDOT":0},{"OBJECT_NAME":"STARLINK-11117 [DTC]","OBJECT_ID":"2024-091J","EPOCH":"2025-08-11T06:05:39.666048","MEAN_MOTION":15.69674392,"ECCENTRICITY":0.0001274,"INCLINATION":53.1596,"RA_OF_ASC_NODE":163.515,"ARG_OF_PERICENTER":93.9305,"MEAN_ANOMALY":266.1858,"EPHEMERIS_TYPE":0,"CLASSIFICATION_TYPE":"U","NORAD_CAT_ID":59761,"ELEMENT_SET_NO":999,"REV_AT_EPOCH":7246,"BSTAR":-3.1781e-5,"MEAN_MOTION_DOT":-4.431e-5,"MEAN_MOTION_DDOT":0},{"OBJECT_NAME":"STARLINK-11110 [DTC]","OBJECT_ID":"2024-091K","EPOCH":"2025-08-11T02:55:11.976096","MEAN_MOTION":15.69697311,"ECCENTRICITY":0.0001256,"INCLINATION":53.1597,"RA_OF_ASC_NODE":164.1114,"ARG_OF_PERICENTER":89.7502,"MEAN_ANOMALY":270.366,"EPHEMERIS_TYPE":0,"CLASSIFICATION_TYPE":"U","NORAD_CAT_ID":59762,"ELEMENT_SET_NO":999,"REV_AT_EPOCH":7244,"BSTAR":-8.0228e-6,"MEAN_MOTION_DOT":-1.56e-5,"MEAN_MOTION_DDOT":0},{"OBJECT_NAME":"STARLINK-11104 [DTC]","OBJECT_ID":"2024-091L","EPOCH":"2025-08-11T05:51:29.371680","MEAN_MOTION":15.69709612,"ECCENTRICITY":0.0001245,"INCLINATION":53.1601,"RA_OF_ASC_NODE":163.4509,"ARG_OF_PERICENTER":88.3123,"MEAN_ANOMALY":271.8037,"EPHEMERIS_TYPE":0,"CLASSIFICATION_TYPE":"U","NORAD_CAT_ID":59763,"ELEMENT_SET_NO":999,"REV_AT_EPOCH":7246,"BSTAR":5.6835e-6,"MEAN_MOTION_DOT":1.0e-6,"MEAN_MOTION_DDOT":0},{"OBJECT_NAME":"STARLINK-11111 [DTC]","OBJECT_ID":"2024-091M","EPOCH":"2025-08-11T02:34:00.854112","MEAN_MOTION":15.69693424,"ECCENTRICITY":0.0001785,"INCLINATION":53.1598,"RA_OF_ASC_NODE":164.0132,"ARG_OF_PERICENTER":91.0807,"MEAN_ANOMALY":269.0415,"EPHEMERIS_TYPE":0,"CLASSIFICATION_TYPE":"U","NORAD_CAT_ID":59764,"ELEMENT_SET_NO":999,"REV_AT_EPOCH":7244,"BSTAR":-2.483e-5,"MEAN_MOTION_DOT":-3.594e-5,"MEAN_MOTION_DDOT":0},{"OBJECT_NAME":"STARLINK-11106 [DTC]","OBJECT_ID":"2024-091N","EPOCH":"2025-08-11T02:41:04.989984","MEAN_MOTION":15.69693588,"ECCENTRICITY":0.000111,"INCLINATION":53.1596,"RA_OF_ASC_NODE":164.0455,"ARG_OF_PERICENTER":83.2416,"MEAN_ANOMALY":276.8728,"EPHEMERIS_TYPE":0,"CLASSIFICATION_TYPE":"U","NORAD_CAT_ID":59765,"ELEMENT_SET_NO":999,"REV_AT_EPOCH":7244,"BSTAR":-3.289e-5,"MEAN_MOTION_DOT":-4.568e-5,"MEAN_MOTION_DDOT":0},{"OBJECT_NAME":"STARLINK-31739","OBJECT_ID":"2024-091P","EPOCH":"2025-08-10T21:43:13.756512","MEAN_MOTION":15.30171705,"ECCENTRICITY":0.0001345,"INCLINATION":53.1605,"RA_OF_ASC_NODE":283.0348,"ARG_OF_PERICENTER":85.2103,"MEAN_ANOMALY":274.9051,"EPHEMERIS_TYPE":0,"CLASSIFICATION_TYPE":"U","NORAD_CAT_ID":59766,"ELEMENT_SET_NO":999,"REV_AT_EPOCH":7077,"BSTAR":-9.6657e-5,"MEAN_MOTION_DOT":-3.218e-5,"MEAN_MOTION_DDOT":0},{"OBJECT_NAME":"STARLINK-31828","OBJECT_ID":"2024-091Q","EPOCH":"2025-08-11T04:21:38.150784","MEAN_MOTION":15.30171415,"ECCENTRICITY":0.0001431,"INCLINATION":53.1606,"RA_OF_ASC_NODE":284.75,"ARG_OF_PERICENTER":84.1882,"MEAN_ANOMALY":275.9281,"EPHEMERIS_TYPE":0,"CLASSIFICATION_TYPE":"U","NORAD_CAT_ID":59767,"ELEMENT_SET_NO":999,"REV_AT_EPOCH":7077,"BSTAR":-2.0256e-5,"MEAN_MOTION_DOT":-9.58e-6,"MEAN_MOTION_DDOT":0}]
